start=new Date('2022-07-25T00:00:00.000Z').valueOf();
sats=[{"FILE":"3521124","MEAN_MOTION_DDOT":"0.0000000000000","TIME_SYSTEM":"UTC","SITE":"AFETR","REV_AT_EPOCH":"9995","MEAN_ELEMENT_THEORY":"SGP4","CENTER_NAME":"EARTH","OBJECT_TYPE":"PAYLOAD","GP_ID":"208796716","SEMIMAJOR_AXIS":"6925.380","TLE_LINE1":"1 46538U 20070G   22205.78282840 -.00000253  00000-0  18794-5 0  9990","EPOCH":"2022-07-24T18:47:16.373760","LAUNCH_DATE":"2020-10-06","BSTAR":"0.00000187940000","PERIOD":"95.593","TLE_LINE2":"2 46538  53.0566 359.8631 0001490  76.4276 283.6879 15.06389641 99952","INCLINATION":"53.0566","MEAN_MOTION":"15.06389641","PERIAPSIS":"546.213","ARG_OF_PERICENTER":"76.4276","DECAY_DATE":null,"MEAN_ANOMALY":"283.6879","MEAN_MOTION_DOT":"-0.00000253","REF_FRAME":"TEME","RCS_SIZE":"LARGE","CLASSIFICATION_TYPE":"U","ELEMENT_SET_NO":"999","OBJECT_ID":"2020-070G","EPHEMERIS_TYPE":"0","RA_OF_ASC_NODE":"359.8631","ECCENTRICITY":"0.00014900","NORAD_CAT_ID":"46538","APOAPSIS":"548.277","COUNTRY_CODE":"US","OBJECT_NAME":"STARLINK-1678"},{"COUNTRY_CODE":"US","APOAPSIS":"548.174","OBJECT_NAME":"STARLINK-1687","NORAD_CAT_ID":"46541","ECCENTRICITY":"0.00013260","OBJECT_ID":"2020-070K","ELEMENT_SET_NO":"999","CLASSIFICATION_TYPE":"U","RA_OF_ASC_NODE":"339.9691","EPHEMERIS_TYPE":"0","DECAY_DATE":null,"ARG_OF_PERICENTER":"84.3448","RCS_SIZE":"LARGE","REF_FRAME":"TEME","MEAN_MOTION_DOT":"-0.00001452","MEAN_ANOMALY":"275.7692","INCLINATION":"53.0566","MEAN_MOTION":"15.06386346","TLE_LINE2":"2 46541  53.0566 339.9691 0001326  84.3448 275.7692 15.06386346100236","PERIOD":"95.593","PERIAPSIS":"546.337","TLE_LINE1":"1 46541U 20070K   22205.76255487 -.00001452  00000-0 -78665-4 0  9994","SEMIMAJOR_AXIS":"6925.390","GP_ID":"208797459","BSTAR":"-0.00007866500000","LAUNCH_DATE":"2020-10-06","EPOCH":"2022-07-24T18:18:04.740768","REV_AT_EPOCH":"10023","SITE":"AFETR","CENTER_NAME":"EARTH","OBJECT_TYPE":"PAYLOAD","MEAN_ELEMENT_THEORY":"SGP4","MEAN_MOTION_DDOT":"0.0000000000000","FILE":"3521124","TIME_SYSTEM":"UTC"},{"OBJECT_NAME":"STARLINK-1692","APOAPSIS":"548.272","COUNTRY_CODE":"US","ECCENTRICITY":"0.00015740","NORAD_CAT_ID":"46542","EPHEMERIS_TYPE":"0","RA_OF_ASC_NODE":"359.9524","CLASSIFICATION_TYPE":"U","ELEMENT_SET_NO":"999","OBJECT_ID":"2020-070L","MEAN_ANOMALY":"283.4926","MEAN_MOTION_DOT":"0.00005397","REF_FRAME":"TEME","RCS_SIZE":"LARGE","ARG_OF_PERICENTER":"76.6239","DECAY_DATE":null,"PERIAPSIS":"546.092","PERIOD":"95.591","TLE_LINE2":"2 46542  53.0554 359.9524 0001574  76.6239 283.4926 15.06410395 99952","INCLINATION":"53.0554","MEAN_MOTION":"15.06410395","EPOCH":"2022-07-24T18:20:43.480032","LAUNCH_DATE":"2020-10-06","BSTAR":"0.00038084000000","GP_ID":"208795716","TLE_LINE1":"1 46542U 20070L   22205.76439213  .00005397  00000-0  38084-3 0  9996","SEMIMAJOR_AXIS":"6925.317","MEAN_ELEMENT_THEORY":"SGP4","OBJECT_TYPE":"PAYLOAD","CENTER_NAME":"EARTH","SITE":"AFETR","REV_AT_EPOCH":"9995","TIME_SYSTEM":"UTC","FILE":"3521124","MEAN_MOTION_DDOT":"0.0000000000000"},{"SITE":"AFETR","REV_AT_EPOCH":"9996","MEAN_ELEMENT_THEORY":"SGP4","CENTER_NAME":"EARTH","OBJECT_TYPE":"PAYLOAD","FILE":"3521124","MEAN_MOTION_DDOT":"0.0000000000000","TIME_SYSTEM":"UTC","PERIOD":"95.592","TLE_LINE2":"2 46543  53.0570 359.7150 0001459  74.7020 285.4131 15.06396817 99966","INCLINATION":"53.0570","MEAN_MOTION":"15.06396817","PERIAPSIS":"546.213","GP_ID":"208796466","TLE_LINE1":"1 46543U 20070M   22205.81600504  .00000729  00000-0  67857-4 0  9991","SEMIMAJOR_AXIS":"6925.358","EPOCH":"2022-07-24T19:35:02.835456","LAUNCH_DATE":"2020-10-06","BSTAR":"0.00006785700000","CLASSIFICATION_TYPE":"U","ELEMENT_SET_NO":"999","OBJECT_ID":"2020-070M","EPHEMERIS_TYPE":"0","RA_OF_ASC_NODE":"359.7150","ARG_OF_PERICENTER":"74.7020","DECAY_DATE":null,"MEAN_ANOMALY":"285.4131","MEAN_MOTION_DOT":"0.00000729","REF_FRAME":"TEME","RCS_SIZE":"LARGE","APOAPSIS":"548.234","COUNTRY_CODE":"US","OBJECT_NAME":"STARLINK-1693","ECCENTRICITY":"0.00014590","NORAD_CAT_ID":"46543"},{"TLE_LINE2":"2 46544  53.0545 344.7518 0001499  80.7043 279.4115 15.06417349100172","PERIOD":"95.591","INCLINATION":"53.0545","MEAN_MOTION":"15.06417349","PERIAPSIS":"546.122","GP_ID":"208797216","TLE_LINE1":"1 46544U 20070N   22205.81185608  .00007185  00000-0  50055-3 0  9999","SEMIMAJOR_AXIS":"6925.295","EPOCH":"2022-07-24T19:29:04.365312","BSTAR":"0.00050055000000","LAUNCH_DATE":"2020-10-06","SITE":"AFETR","REV_AT_EPOCH":"10017","MEAN_ELEMENT_THEORY":"SGP4","CENTER_NAME":"EARTH","OBJECT_TYPE":"PAYLOAD","FILE":"3521124","MEAN_MOTION_DDOT":"0.0000000000000","TIME_SYSTEM":"UTC","APOAPSIS":"548.198","COUNTRY_CODE":"US","OBJECT_NAME":"STARLINK-1694","NORAD_CAT_ID":"46544","ECCENTRICITY":"0.00014990","ELEMENT_SET_NO":"999","CLASSIFICATION_TYPE":"U","OBJECT_ID":"2020-070N","EPHEMERIS_TYPE":"0","RA_OF_ASC_NODE":"344.7518","ARG_OF_PERICENTER":"80.7043","DECAY_DATE":null,"MEAN_MOTION_DOT":"0.00007185","MEAN_ANOMALY":"279.4115","RCS_SIZE":"LARGE","REF_FRAME":"TEME"},{"MEAN_ANOMALY":"279.0881","MEAN_MOTION_DOT":"-0.00000433","REF_FRAME":"TEME","RCS_SIZE":"LARGE","ARG_OF_PERICENTER":"81.0286","DECAY_DATE":null,"EPHEMERIS_TYPE":"0","RA_OF_ASC_NODE":"0.1553","CLASSIFICATION_TYPE":"U","ELEMENT_SET_NO":"999","OBJECT_ID":"2020-070P","ECCENTRICITY":"0.00015790","NORAD_CAT_ID":"46545","OBJECT_NAME":"STARLINK-1696","APOAPSIS":"548.293","COUNTRY_CODE":"US","TIME_SYSTEM":"UTC","FILE":"3521124","MEAN_MOTION_DDOT":"0.0000000000000","MEAN_ELEMENT_THEORY":"SGP4","OBJECT_TYPE":"PAYLOAD","CENTER_NAME":"EARTH","SITE":"AFETR","REV_AT_EPOCH":"9994","EPOCH":"2022-07-24T17:17:02.103072","LAUNCH_DATE":"2020-10-06","BSTAR":"-0.00001013500000","GP_ID":"208796960","TLE_LINE1":"1 46545U 20070P   22205.72016323 -.00000433  00000-0 -10135-4 0  9994","SEMIMAJOR_AXIS":"6925.335","PERIAPSIS":"546.106","PERIOD":"95.592","TLE_LINE2":"2 46545  53.0545   0.1553 0001579  81.0286 279.0881 15.06404513 99944","INCLINATION":"53.0545","MEAN_MOTION":"15.06404513"},{"PERIOD":"95.591","TLE_LINE2":"2 46546  53.0563 359.6179 0001458  62.3765 297.7372 15.06413047 99967","MEAN_MOTION":"15.06413047","INCLINATION":"53.0563","PERIAPSIS":"546.164","GP_ID":"208796215","TLE_LINE1":"1 46546U 20070Q   22205.83811048  .00002608  00000-0  19383-3 0  9991","SEMIMAJOR_AXIS":"6925.309","EPOCH":"2022-07-24T20:06:52.745472","LAUNCH_DATE":"2020-10-06","BSTAR":"0.00019383000000","SITE":"AFETR","REV_AT_EPOCH":"9996","MEAN_ELEMENT_THEORY":"SGP4","OBJECT_TYPE":"PAYLOAD","CENTER_NAME":"EARTH","FILE":"3521124","MEAN_MOTION_DDOT":"0.0000000000000","TIME_SYSTEM":"UTC","APOAPSIS":"548.183","COUNTRY_CODE":"US","OBJECT_NAME":"STARLINK-1697","ECCENTRICITY":"0.00014580","NORAD_CAT_ID":"46546","CLASSIFICATION_TYPE":"U","ELEMENT_SET_NO":"999","OBJECT_ID":"2020-070Q","EPHEMERIS_TYPE":"0","RA_OF_ASC_NODE":"359.6179","ARG_OF_PERICENTER":"62.3765","DECAY_DATE":null,"MEAN_ANOMALY":"297.7372","MEAN_MOTION_DOT":"0.00002608","REF_FRAME":"TEME","RCS_SIZE":"LARGE"},{"TIME_SYSTEM":"UTC","FILE":"3521124","MEAN_MOTION_DDOT":"0.0000000000000","MEAN_ELEMENT_THEORY":"SGP4","CENTER_NAME":"EARTH","OBJECT_TYPE":"PAYLOAD","SITE":"AFETR","REV_AT_EPOCH":"9996","EPOCH":"2022-07-24T19:12:27.116640","LAUNCH_DATE":"2020-10-06","BSTAR":"-0.00003689400000","GP_ID":"208796966","SEMIMAJOR_AXIS":"6925.366","TLE_LINE1":"1 46547U 20070R   22205.80031385 -.00000831  00000-0 -36894-4 0  9992","PERIAPSIS":"546.152","PERIOD":"95.593","TLE_LINE2":"2 46547  53.0559 359.7802 0001558  76.3844 283.7319 15.06394240 99960","INCLINATION":"53.0559","MEAN_MOTION":"15.06394240","MEAN_ANOMALY":"283.7319","MEAN_MOTION_DOT":"-0.00000831","REF_FRAME":"TEME","RCS_SIZE":"LARGE","ARG_OF_PERICENTER":"76.3844","DECAY_DATE":null,"EPHEMERIS_TYPE":"0","RA_OF_ASC_NODE":"359.7802","CLASSIFICATION_TYPE":"U","ELEMENT_SET_NO":"999","OBJECT_ID":"2020-070R","ECCENTRICITY":"0.00015580","NORAD_CAT_ID":"46547","OBJECT_NAME":"STARLINK-1698","APOAPSIS":"548.310","COUNTRY_CODE":"US"},{"REV_AT_EPOCH":"9997","SITE":"AFETR","OBJECT_TYPE":"PAYLOAD","CENTER_NAME":"EARTH","MEAN_ELEMENT_THEORY":"SGP4","MEAN_MOTION_DDOT":"0.0000000000000","FILE":"3521124","TIME_SYSTEM":"UTC","INCLINATION":"53.0548","MEAN_MOTION":"15.06412619","PERIOD":"95.591","TLE_LINE2":"2 46548  53.0548 359.4406 0001476  80.9264 279.1892 15.06412619 99979","PERIAPSIS":"546.153","SEMIMAJOR_AXIS":"6925.310","TLE_LINE1":"1 46548U 20070S   22205.87865943  .00005740  00000-0  40378-3 0  9998","GP_ID":"208796717","LAUNCH_DATE":"2020-10-06","BSTAR":"0.00040378000000","EPOCH":"2022-07-24T21:05:16.174752","OBJECT_ID":"2020-070S","CLASSIFICATION_TYPE":"U","ELEMENT_SET_NO":"999","RA_OF_ASC_NODE":"359.4406","EPHEMERIS_TYPE":"0","DECAY_DATE":null,"ARG_OF_PERICENTER":"80.9264","REF_FRAME":"TEME","RCS_SIZE":"LARGE","MEAN_ANOMALY":"279.1892","MEAN_MOTION_DOT":"0.00005740","COUNTRY_CODE":"US","APOAPSIS":"548.197","OBJECT_NAME":"STARLINK-1699","ECCENTRICITY":"0.00014760","NORAD_CAT_ID":"46548"},{"NORAD_CAT_ID":"46549","ECCENTRICITY":"0.00013630","APOAPSIS":"548.154","COUNTRY_CODE":"US","OBJECT_NAME":"STARLINK-1700","ARG_OF_PERICENTER":"81.5089","DECAY_DATE":null,"MEAN_MOTION_DOT":"-0.00000129","MEAN_ANOMALY":"278.6054","RCS_SIZE":"LARGE","REF_FRAME":"TEME","ELEMENT_SET_NO":"999","CLASSIFICATION_TYPE":"U","OBJECT_ID":"2020-070T","EPHEMERIS_TYPE":"0","RA_OF_ASC_NODE":"359.6102","GP_ID":"208797460","SEMIMAJOR_AXIS":"6925.345","TLE_LINE1":"1 46549U 20070T   22205.84179511 -.00000129  00000-0  10224-4 0  9990","EPOCH":"2022-07-24T20:12:11.097504","BSTAR":"0.00001022400000","LAUNCH_DATE":"2020-10-06","TLE_LINE2":"2 46549  53.0573 359.6102 0001363  81.5089 278.6054 15.06401034 99962","PERIOD":"95.592","INCLINATION":"53.0573","MEAN_MOTION":"15.06401034","PERIAPSIS":"546.266","FILE":"3521124","MEAN_MOTION_DDOT":"0.0000000000000","TIME_SYSTEM":"UTC","SITE":"AFETR","REV_AT_EPOCH":"9996","MEAN_ELEMENT_THEORY":"SGP4","CENTER_NAME":"EARTH","OBJECT_TYPE":"PAYLOAD"}];
